{
    "links": {
        "self": "http://www.neowsapp.com/rest/v1/neo/3591888?api_key=iIulBulltgU6a56xZRHN4H3l9WmuAYTsLGpBGhQ2"
    },
    "id": "3591888",
    "neo_reference_id": "3591888",
    "name": "(2011 YX62)",
    "designation": "2011 YX62",
    "nasa_jpl_url": "http://ssd.jpl.nasa.gov/sbdb.cgi?sstr=3591888",
    "absolute_magnitude_h": 23.0,
    "estimated_diameter": {
        "kilometers": {
            "estimated_diameter_min": 0.0667659413,
            "estimated_diameter_max": 0.1492931834
        },
        "meters": {
            "estimated_diameter_min": 66.7659413495,
            "estimated_diameter_max": 149.2931834393
        },
        "miles": {
            "estimated_diameter_min": 0.0414864197,
            "estimated_diameter_max": 0.0927664547
        },
        "feet": {
            "estimated_diameter_min": 219.0483710172,
            "estimated_diameter_max": 489.807047955
        }
    },
    "is_potentially_hazardous_asteroid": false,
    "close_approach_data": [
        {
            "close_approach_date": "2012-01-03",
            "close_approach_date_full": "2012-Jan-03 21:50",
            "epoch_date_close_approach": 1325627400000,
            "relative_velocity": {
                "kilometers_per_second": "34.7183286839",
                "kilometers_per_hour": "124985.983261986",
                "miles_per_hour": "77661.4294329824"
            },
            "miss_distance": {
                "astronomical": "0.0608372031",
                "lunar": "23.6656720059",
                "kilometers": "9101116.000517397",
                "miles": "5655171.2489461986"
            },
            "orbiting_body": "Earth"
        }
    ],
    "orbital_data": {
        "orbit_id": "4",
        "orbit_determination_date": "2017-04-06 08:51:35",
        "first_observation_date": "2011-12-30",
        "last_observation_date": "2012-01-02",
        "data_arc_in_days": 3,
        "observations_used": 32,
        "orbit_uncertainty": "9",
        "minimum_orbit_intersection": ".0488642",
        "jupiter_tisserand_invariant": "2.578",
        "epoch_osculation": "2455927.5",
        "eccentricity": ".9267098193337804",
        "semi_major_axis": "2.525036085478622",
        "inclination": "8.617800315725166",
        "ascending_node_longitude": "82.08234613022127",
        "orbital_period": "1465.547201211118",
        "perihelion_distance": ".1850603508934522",
        "perihelion_argument": "152.8323223763488",
        "aphelion_distance": "4.865011820063793",
        "perihelion_time": "2455967.196564688020",
        "mean_anomaly": "350.2488549833964",
        "mean_motion": ".2456420371193085",
        "equinox": "J2000",
        "orbit_class": {
            "orbit_class_type": "APO",
            "orbit_class_description": "Near-Earth asteroid orbits which cross the Earth’s orbit similar to that of 1862 Apollo",
            "orbit_class_range": "a (semi-major axis) > 1.0 AU; q (perihelion) < 1.017 AU"
        }
    },
    "is_sentry_object": false
}